[{"OBJECT_NAME":"STARLINK-5533","OBJECT_ID":"2023-058AQ","EPOCH":"2026-01-26T23:05:11.333472","MEAN_MOTION":15.01261363,"ECCENTRICITY":0.00021257,"INCLINATION":97.6058,"RA_OF_ASC_NODE":29.4054,"ARG_OF_PERICENTER":91.9388,"MEAN_ANOMALY":268.2079,"EPHEMERIS_TYPE":0,"CLASSIFICATION_TYPE":"U","NORAD_CAT_ID":56355,"ELEMENT_SET_NO":999,"REV_AT_EPOCH":15187,"BSTAR":2.8828006e-5,"MEAN_MOTION_DOT":3.12e-6,"MEAN_MOTION_DDOT":0},{"OBJECT_NAME":"STARLINK-5535","OBJECT_ID":"2023-058AR","EPOCH":"2026-01-26T22:32:22.249824","MEAN_MOTION":15.05655844,"ECCENTRICITY":0.00016855,"INCLINATION":97.6049,"RA_OF_ASC_NODE":30.0508,"ARG_OF_PERICENTER":102.1696,"MEAN_ANOMALY":257.972,"EPHEMERIS_TYPE":0,"CLASSIFICATION_TYPE":"U","NORAD_CAT_ID":56356,"ELEMENT_SET_NO":999,"REV_AT_EPOCH":15191,"BSTAR":-5.4696557e-5,"MEAN_MOTION_DOT":-8.5e-6,"MEAN_MOTION_DDOT":0},{"OBJECT_NAME":"STARLINK-5538","OBJECT_ID":"2023-058AS","EPOCH":"2026-01-26T23:20:13.803072","MEAN_MOTION":15.05655027,"ECCENTRICITY":0.0001814,"INCLINATION":97.6054,"RA_OF_ASC_NODE":30.1606,"ARG_OF_PERICENTER":86.2334,"MEAN_ANOMALY":273.91,"EPHEMERIS_TYPE":0,"CLASSIFICATION_TYPE":"U","NORAD_CAT_ID":56357,"ELEMENT_SET_NO":999,"REV_AT_EPOCH":15192,"BSTAR":-5.8623313e-5,"MEAN_MOTION_DOT":-9.07e-6,"MEAN_MOTION_DDOT":0},{"OBJECT_NAME":"STARLINK-5482","OBJECT_ID":"2023-058AT","EPOCH":"2026-01-26T11:58:40.648512","MEAN_MOTION":15.01260344,"ECCENTRICITY":0.00024949,"INCLINATION":97.6051,"RA_OF_ASC_NODE":28.9444,"ARG_OF_PERICENTER":135.5548,"MEAN_ANOMALY":224.5877,"EPHEMERIS_TYPE":0,"CLASSIFICATION_TYPE":"U","NORAD_CAT_ID":56358,"ELEMENT_SET_NO":999,"REV_AT_EPOCH":15180,"BSTAR":-7.902899e-5,"MEAN_MOTION_DOT":-1.073e-5,"MEAN_MOTION_DDOT":0},{"OBJECT_NAME":"STARLINK-5551","OBJECT_ID":"2023-058AU","EPOCH":"2026-01-26T23:02:52.175040","MEAN_MOTION":15.01271505,"ECCENTRICITY":0.00020449,"INCLINATION":97.6073,"RA_OF_ASC_NODE":29.409,"ARG_OF_PERICENTER":103.0827,"MEAN_ANOMALY":257.0626,"EPHEMERIS_TYPE":0,"CLASSIFICATION_TYPE":"U","NORAD_CAT_ID":56359,"ELEMENT_SET_NO":999,"REV_AT_EPOCH":15187,"BSTAR":9.482378e-5,"MEAN_MOTION_DOT":1.16e-5,"MEAN_MOTION_DDOT":0},{"OBJECT_NAME":"STARLINK-5549","OBJECT_ID":"2023-058AV","EPOCH":"2026-01-26T12:42:15.650784","MEAN_MOTION":15.05634369,"ECCENTRICITY":0.0001724,"INCLINATION":97.6062,"RA_OF_ASC_NODE":29.6728,"ARG_OF_PERICENTER":108.5228,"MEAN_ANOMALY":251.6186,"EPHEMERIS_TYPE":0,"CLASSIFICATION_TYPE":"U","NORAD_CAT_ID":56360,"ELEMENT_SET_NO":999,"REV_AT_EPOCH":15185,"BSTAR":-0.00027546,"MEAN_MOTION_DOT":-4.032e-5,"MEAN_MOTION_DDOT":0},{"OBJECT_NAME":"STARLINK-5550","OBJECT_ID":"2023-058AW","EPOCH":"2026-01-26T22:59:51.052128","MEAN_MOTION":15.01262555,"ECCENTRICITY":4.524e-5,"INCLINATION":97.6084,"RA_OF_ASC_NODE":29.4155,"ARG_OF_PERICENTER":142.6559,"MEAN_ANOMALY":217.4697,"EPHEMERIS_TYPE":0,"CLASSIFICATION_TYPE":"U","NORAD_CAT_ID":56361,"ELEMENT_SET_NO":999,"REV_AT_EPOCH":15187,"BSTAR":4.5487085e-5,"MEAN_MOTION_DOT":5.26e-6,"MEAN_MOTION_DDOT":0},{"OBJECT_NAME":"STARLINK-5972","OBJECT_ID":"2023-058AX","EPOCH":"2026-01-27T00:00:06.163776","MEAN_MOTION":15.0565639,"ECCENTRICITY":0.0001859,"INCLINATION":97.6049,"RA_OF_ASC_NODE":30.1238,"ARG_OF_PERICENTER":99.0949,"MEAN_ANOMALY":261.0488,"EPHEMERIS_TYPE":0,"CLASSIFICATION_TYPE":"U","NORAD_CAT_ID":56362,"ELEMENT_SET_NO":999,"REV_AT_EPOCH":15192,"BSTAR":-0.00020430725,"MEAN_MOTION_DOT":-3.008e-5,"MEAN_MOTION_DDOT":0},{"OBJECT_NAME":"STARLINK-6156","OBJECT_ID":"2023-061A","EPOCH":"2026-01-26T19:38:18.659328","MEAN_MOTION":15.02539182,"ECCENTRICITY":9.938e-5,"INCLINATION":43.0047,"RA_OF_ASC_NODE":65.1981,"ARG_OF_PERICENTER":266.07,"MEAN_ANOMALY":94.0029,"EPHEMERIS_TYPE":0,"CLASSIFICATION_TYPE":"U","NORAD_CAT_ID":56374,"ELEMENT_SET_NO":999,"REV_AT_EPOCH":15155,"BSTAR":4.8758007e-5,"MEAN_MOTION_DOT":4.55e-6,"MEAN_MOTION_DDOT":0},{"OBJECT_NAME":"STARLINK-6158","OBJECT_ID":"2023-061B","EPOCH":"2026-01-26T19:30:18.730656","MEAN_MOTION":15.0255326,"ECCENTRICITY":0.00011106,"INCLINATION":43.0043,"RA_OF_ASC_NODE":65.1551,"ARG_OF_PERICENTER":271.1168,"MEAN_ANOMALY":88.9547,"EPHEMERIS_TYPE":0,"CLASSIFICATION_TYPE":"U","NORAD_CAT_ID":56375,"ELEMENT_SET_NO":999,"REV_AT_EPOCH":15045,"BSTAR":-0.00020343166,"MEAN_MOTION_DOT":-2.952e-5,"MEAN_MOTION_DDOT":0},{"OBJECT_NAME":"STARLINK-6188","OBJECT_ID":"2023-061C","EPOCH":"2026-01-26T12:37:02.874144","MEAN_MOTION":15.02536637,"ECCENTRICITY":0.0001358,"INCLINATION":43.0018,"RA_OF_ASC_NODE":66.4444,"ARG_OF_PERICENTER":253.5203,"MEAN_ANOMALY":106.5491,"EPHEMERIS_TYPE":0,"CLASSIFICATION_TYPE":"U","NORAD_CAT_ID":56376,"ELEMENT_SET_NO":999,"REV_AT_EPOCH":15041,"BSTAR":6.2845e-5,"MEAN_MOTION_DOT":6.45e-6,"MEAN_MOTION_DDOT":0},{"OBJECT_NAME":"STARLINK-6189","OBJECT_ID":"2023-061D","EPOCH":"2026-01-26T19:25:34.194720","MEAN_MOTION":15.02500907,"ECCENTRICITY":0.0001131,"INCLINATION":43.003,"RA_OF_ASC_NODE":65.1319,"ARG_OF_PERICENTER":265.5204,"MEAN_ANOMALY":94.551,"EPHEMERIS_TYPE":0,"CLASSIFICATION_TYPE":"U","NORAD_CAT_ID":56377,"ELEMENT_SET_NO":999,"REV_AT_EPOCH":15045,"BSTAR":-0.00014178326,"MEAN_MOTION_DOT":-2.116e-5,"MEAN_MOTION_DDOT":0},{"OBJECT_NAME":"STARLINK-6191","OBJECT_ID":"2023-061E","EPOCH":"2026-01-26T11:33:16.441056","MEAN_MOTION":15.02539385,"ECCENTRICITY":0.00012252,"INCLINATION":43.0039,"RA_OF_ASC_NODE":66.965,"ARG_OF_PERICENTER":261.9955,"MEAN_ANOMALY":98.0748,"EPHEMERIS_TYPE":0,"CLASSIFICATION_TYPE":"U","NORAD_CAT_ID":56378,"ELEMENT_SET_NO":999,"REV_AT_EPOCH":15040,"BSTAR":1.2139302e-5,"MEAN_MOTION_DOT":-4.0e-7,"MEAN_MOTION_DDOT":0},{"OBJECT_NAME":"STARLINK-6157","OBJECT_ID":"2023-061F","EPOCH":"2026-01-26T19:09:32.676768","MEAN_MOTION":15.02538187,"ECCENTRICITY":0.00010824,"INCLINATION":43.0029,"RA_OF_ASC_NODE":65.049,"ARG_OF_PERICENTER":263.5945,"MEAN_ANOMALY":96.4774,"EPHEMERIS_TYPE":0,"CLASSIFICATION_TYPE":"U","NORAD_CAT_ID":56379,"ELEMENT_SET_NO":999,"REV_AT_EPOCH":15155,"BSTAR":0.00013507285,"MEAN_MOTION_DOT":1.622e-5,"MEAN_MOTION_DDOT":0},{"OBJECT_NAME":"STARLINK-6159","OBJECT_ID":"2023-061H","EPOCH":"2026-01-25T11:24:34.500384","MEAN_MOTION":15.02543692,"ECCENTRICITY":0.0001008,"INCLINATION":43.0024,"RA_OF_ASC_NODE":72.3214,"ARG_OF_PERICENTER":250.7903,"MEAN_ANOMALY":109.2831,"EPHEMERIS_TYPE":0,"CLASSIFICATION_TYPE":"U","NORAD_CAT_ID":56381,"ELEMENT_SET_NO":999,"REV_AT_EPOCH":15025,"BSTAR":4.9592e-5,"MEAN_MOTION_DOT":4.67e-6,"MEAN_MOTION_DDOT":0},{"OBJECT_NAME":"STARLINK-6160","OBJECT_ID":"2023-061J","EPOCH":"2026-01-26T09:27:11.510208","MEAN_MOTION":15.02535127,"ECCENTRICITY":0.00011341,"INCLINATION":43.0063,"RA_OF_ASC_NODE":67.1677,"ARG_OF_PERICENTER":253.3712,"MEAN_ANOMALY":106.7006,"EPHEMERIS_TYPE":0,"CLASSIFICATION_TYPE":"U","NORAD_CAT_ID":56382,"ELEMENT_SET_NO":999,"REV_AT_EPOCH":15039,"BSTAR":3.9737611e-5,"MEAN_MOTION_DOT":3.33e-6,"MEAN_MOTION_DDOT":0}]
