STARLINK-5533           
1 56355U 23058AQ  26026.96193673  .00000312  00000+0  28828-4 0  9999
2 56355  97.6058  29.4054 0002125  91.9388 268.2079 15.01261363151877
STARLINK-5535           
1 56356U 23058AR  26026.93914641 -.00000850  00000+0 -54697-4 0  9995
2 56356  97.6049  30.0508 0001685 102.1696 257.9720 15.05655844151915
STARLINK-5538           
1 56357U 23058AS  26026.97238198 -.00000907  00000+0 -58623-4 0  9992
2 56357  97.6054  30.1606 0001814  86.2334 273.9100 15.05655027151921
STARLINK-5482           
1 56358U 23058AT  26026.49908158 -.00001073  00000+0 -79029-4 0  9998
2 56358  97.6051  28.9444 0002494 135.5548 224.5877 15.01260344151804
STARLINK-5551           
1 56359U 23058AU  26026.96032610  .00001160  00000+0  94824-4 0  9997
2 56359  97.6073  29.4090 0002044 103.0827 257.0626 15.01271505151874
STARLINK-5549           
1 56360U 23058AV  26026.52934781 -.00004032  00000+0 -27546-3 0  9990
2 56360  97.6062  29.6728 0001724 108.5228 251.6186 15.05634369151857
STARLINK-5550           
1 56361U 23058AW  26026.95822977  .00000526  00000+0  45487-4 0  9998
2 56361  97.6084  29.4155 0000452 142.6559 217.4697 15.01262555151876
STARLINK-5972           
1 56362U 23058AX  26027.00007134 -.00003008  00000+0 -20431-3 0  9997
2 56362  97.6049  30.1238 0001859  99.0949 261.0488 15.05656390151926
STARLINK-6156           
1 56374U 23061A   26026.81827152  .00000455  00000+0  48758-4 0  9996
2 56374  43.0047  65.1981 0000993 266.0700  94.0029 15.02539182151554
STARLINK-6158           
1 56375U 23061B   26026.81271679 -.00002952  00000+0 -20343-3 0  9999
2 56375  43.0043  65.1551 0001110 271.1168  88.9547 15.02553260150459
STARLINK-6188           
1 56376U 23061C   26026.52572771  .00000645  00000+0  62845-4 0  9994
2 56376  43.0018  66.4444 0001358 253.5203 106.5491 15.02536637150415
STARLINK-6189           
1 56377U 23061D   26026.80942355 -.00002116  00000+0 -14178-3 0  9997
2 56377  43.0030  65.1319 0001131 265.5204  94.5510 15.02500907150453
STARLINK-6191           
1 56378U 23061E   26026.48144029 -.00000040  00000+0  12139-4 0  9993
2 56378  43.0039  66.9650 0001225 261.9955  98.0748 15.02539385150406
STARLINK-6157           
1 56379U 23061F   26026.79829487  .00001622  00000+0  13507-3 0  9991
2 56379  43.0029  65.0490 0001082 263.5945  96.4774 15.02538187151553
STARLINK-6159           
1 56381U 23061H   26025.47539931  .00000467  00000+0  49592-4 0  9990
2 56381  43.0024  72.3214 0001008 250.7903 109.2831 15.02543692150256
STARLINK-6160           
1 56382U 23061J   26026.39388322  .00000333  00000+0  39738-4 0  9992
2 56382  43.0063  67.1677 0001134 253.3712 106.7006 15.02535127150397
